NORAD_CAT_ID,OBJECT_NAME,OBJECT_TYPE,EPOCH,MEAN_MOTION,ECCENTRICITY,INCLINATION,RA_OF_ASC_NODE,ARG_OF_PERICENTER,MEAN_ANOMALY,BSTAR,MEAN_MOTION_DOT,MEAN_MOTION_DDOT,TLE_LINE0,TLE_LINE1,TLE_LINE2,SEMIMAJOR_AXIS,PERIOD,APOGEE,PERIGEE,DECAYED
55276.0,STARLINK-5261,PAYLOAD,2024-01-04 21:27:00,14.98332066,0.0002487,69.9983,228.5264,269.1156,90.9718,2.496e-05,2.05e-06,0.0,0 STARLINK-5261,1 55276U 23010H   24004.89375234  .00000205  00000-0  24960-4 0  9994,2 55276  69.9983 228.5264 0002487 269.1156  90.9718 14.98332066 54219,6950.187,96.107,573.78,570.323,0.0
55276.0,STARLINK-5261,PAYLOAD,2024-01-05 00:39:16,14.983321,0.0002513,69.9982,228.1898,270.808,89.2791,2.4082e-05,1.94e-06,0.0,0 STARLINK-5261,1 55276U 23010H   24005.02727225  .00000194  00000-0  24082-4 0  9993,2 55276  69.9982 228.1898 0002513 270.8080  89.2791 14.98332100 53931,6950.186,96.107,573.798,570.305,0.0
55276.0,STARLINK-5261,PAYLOAD,2024-01-05 15:04:29,14.98327154,0.0002498,69.9983,226.6746,272.9964,87.0909,2.5102e-05,2.07e-06,0.0,0 STARLINK-5261,1 55276U 23010H   24005.62811544  .00000207  00000-0  25102-4 0  9996,2 55276  69.9983 226.6746 0002498 272.9964  87.0909 14.98327154 54327,6950.202,96.107,573.803,570.331,0.0
55276.0,STARLINK-5261,PAYLOAD,2024-01-05 21:29:01,14.98326831,0.0002507,69.9983,226.0014,273.2312,86.856,1.8874e-05,1.32e-06,0.0,0 STARLINK-5261,1 55276U 23010H   24005.89515619  .00000132  00000-0  18874-4 0  9994,2 55276  69.9983 226.0014 0002507 273.2312  86.8560 14.98326831 54366,6950.203,96.107,573.81,570.325,0.0
55276.0,STARLINK-5261,PAYLOAD,2024-01-06 00:41:17,14.98327308,0.0002521,69.9983,225.6653,273.9008,86.1862,2.152e-05,1.64e-06,0.0,0 STARLINK-5261,1 55276U 23010H   24006.02867603  .00000164  00000-0  21520-4 0  9990,2 55276  69.9983 225.6653 0002521 273.9008  86.1862 14.98327308 54082,6950.201,96.107,573.818,570.314,0.0
55276.0,STARLINK-5261,PAYLOAD,2024-01-06 21:31:02,14.98333087,0.0002528,69.9983,223.477,276.3622,83.7249,-2.7874e-06,-1.26e-06,0.0,0 STARLINK-5261,1 55276U 23010H   24006.89655270 -.00000126  00000-0 -27874-5 0  9999,2 55276  69.9983 223.4770 0002528 276.3622  83.7249 14.98333087 54515,6950.183,96.107,573.805,570.291,0.0
55276.0,STARLINK-5261,PAYLOAD,2024-01-07 00:43:18,14.98333851,0.0002518,69.9983,223.1406,275.565,84.5221,5.9029e-06,-2.3e-07,0.0,0 STARLINK-5261,1 55276U 23010H   24007.03007164 -.00000023  00000-0  59029-5 0  9991,2 55276  69.9983 223.1406 0002518 275.5650  84.5221 14.98333851 54236,6950.181,96.107,573.796,570.296,0.0
55276.0,STARLINK-5261,PAYLOAD,2024-01-07 13:32:22,14.98328191,0.0002459,69.9986,221.7948,273.857,86.2308,2.21e-06,-6.7e-07,0.0,0 STARLINK-5261,1 55276U 23010H   24007.56415475 -.00000067  00000-0  22100-5 0  9995,2 55276  69.9986 221.7948 0002459 273.8570  86.2308 14.98328191 54618,6950.198,96.107,573.773,570.354,0.0
55276.0,STARLINK-5261,PAYLOAD,2024-01-07 21:33:03,14.98328934,0.0002456,69.9986,220.9533,272.4989,87.5889,9.1754e-06,1.7e-07,0.0,0 STARLINK-5261,1 55276U 23010H   24007.89795405  .00000017  00000-0  91754-5 0  9990,2 55276  69.9986 220.9533 0002456 272.4989  87.5889 14.98328934 54663,6950.196,96.107,573.768,570.354,0.0
55276.0,STARLINK-5261,PAYLOAD,2024-01-07 23:09:11,14.98328931,0.0002457,69.9986,220.7849,272.5896,87.4981,8.7079e-06,1.1e-07,0.0,0 STARLINK-5261,1 55276U 23010H   24007.96471408  .00000011  00000-0  87079-5 0  9991,2 55276  69.9986 220.7849 0002457 272.5896  87.4981 14.98328931 54377,6950.196,96.107,573.769,570.354,0.0
55276.0,STARLINK-5261,PAYLOAD,2024-01-08 21:35:04,14.98331067,0.0002375,69.9988,218.4281,264.338,95.7508,-7.371e-06,-1.81e-06,0.0,0 STARLINK-5261,1 55276U 23010H   24008.89935212 -.00000181  00000-0 -73710-5 0  9999,2 55276  69.9988 218.4281 0002375 264.3380  95.7508 14.98331067 54819,6950.19,96.107,573.705,570.404,0.0
55276.0,STARLINK-5261,PAYLOAD,2024-01-09 00:47:20,14.98331028,0.0002398,69.9988,218.0917,267.9444,92.144,-9.4784e-06,-2.06e-06,0.0,0 STARLINK-5261,1 55276U 23010H   24009.03287222 -.00000206  00000-0 -94784-5 0  9999,2 55276  69.9988 218.0917 0002398 267.9444  92.1440 14.98331028 54538,6950.19,96.107,573.721,570.388,0.0
55276.0,STARLINK-5261,PAYLOAD,2024-01-09 13:36:24,14.9833053,0.000248,69.9987,216.7449,270.6864,89.4011,6.5961e-06,-1.4e-07,0.0,0 STARLINK-5261,1 55276U 23010H   24009.56695161 -.00000014  00000-0  65961-5 0  9993,2 55276  69.9987 216.7449 0002480 270.6864  89.4011 14.98330530 54913,6950.191,96.107,573.78,570.333,0.0
55276.0,STARLINK-5261,PAYLOAD,2024-01-09 21:37:04,14.98331413,0.0002452,69.9988,215.9034,270.0663,90.0215,1.7598e-05,1.17e-06,0.0,0 STARLINK-5261,1 55276U 23010H   24009.90075032  .00000117  00000-0  17598-4 0  9995,2 55276  69.9988 215.9034 0002452 270.0663  90.0215 14.98331413 54965,6950.189,96.107,573.758,570.349,0.0
55276.0,STARLINK-5261,PAYLOAD,2024-01-09 23:13:12,14.98331553,0.0002449,69.9988,215.7351,270.0715,90.0163,1.8951e-05,1.33e-06,0.0,0 STARLINK-5261,1 55276U 23010H   24009.96751011  .00000133  00000-0  18951-4 0  9991,2 55276  69.9988 215.7351 0002449 270.0715  90.0163 14.98331553 54977,6950.188,96.107,573.755,570.351,0.0
55276.0,STARLINK-5261,PAYLOAD,2024-01-10 18:26:49,14.98329213,0.0002401,69.9991,213.7154,269.5949,90.4935,-1.4753e-05,-2.69e-06,0.0,0 STARLINK-5261,1 55276U 23010H   24010.76863216 -.00000269  00000-0 -14753-4 0  9990,2 55276  69.9991 213.7154 0002401 269.5949  90.4935 14.98329213 54791,6950.195,96.107,573.729,570.392,0.0
55276.0,STARLINK-5261,PAYLOAD,2024-01-11 15:16:34,14.98333112,0.0002391,69.9993,211.527,269.7051,90.3834,1.511e-05,8.7e-07,0.0,0 STARLINK-5261,1 55276U 23010H   24011.63650823  .00000087  00000-0  15110-4 0  9999,2 55276  69.9993 211.5270 0002391 269.7051  90.3834 14.98333112 55221,6950.183,96.107,573.71,570.386,0.0
55276.0,STARLINK-5261,PAYLOAD,2024-01-11 20:04:58,14.98333113,0.0002395,69.9995,211.0222,270.1264,89.9621,1.5246e-05,8.9e-07,0.0,0 STARLINK-5261,1 55276U 23010H   24011.83678784  .00000089  00000-0  15246-4 0  9999,2 55276  69.9995 211.0222 0002395 270.1264  89.9621 14.98333113 54959,6950.183,96.107,573.713,570.384,0.0
55276.0,STARLINK-5261,PAYLOAD,2024-01-11 21:41:06,14.98332391,0.0002411,69.9994,210.8539,270.4656,89.6227,6.2669e-06,-1.8e-07,0.0,0 STARLINK-5261,1 55276U 23010H   24011.90354846 -.00000018  00000-0  62669-5 0  9992,2 55276  69.9994 210.8539 0002411 270.4656  89.6227 14.98332391 55264,6950.185,96.107,573.726,570.375,0.0
55276.0,STARLINK-5261,PAYLOAD,2024-01-12 13:42:27,14.98328266,0.0002369,69.9997,209.171,270.7608,89.3279,6.6493e-06,-1.4e-07,0.0,0 STARLINK-5261,1 55276U 23010H   24012.57115045 -.00000014  00000-0  66493-5 0  9997,2 55276  69.9997 209.1710 0002369 270.7608  89.3279 14.98328266 55362,6950.198,96.107,573.71,570.417,0.0
55276.0,STARLINK-5261,PAYLOAD,2024-01-12 20:06:59,14.98327211,0.00024,69.9998,208.4978,268.8512,91.2372,-8.4341e-06,-1.94e-06,0.0,0 STARLINK-5261,1 55276U 23010H   24012.83819155 -.00000194  00000-0 -84341-5 0  9991,2 55276  69.9998 208.4978 0002400 268.8512  91.2372 14.98327211 55106,6950.202,96.107,573.735,570.398,0.0
55276.0,STARLINK-5261,PAYLOAD,2024-01-12 21:43:07,14.98327541,0.0002391,69.9998,208.3295,268.7028,91.3857,-4.4619e-06,-1.46e-06,0.0,0 STARLINK-5261,1 55276U 23010H   24012.90495128 -.00000146  00000-0 -44619-5 0  9990,2 55276  69.9998 208.3295 0002391 268.7028  91.3857 14.98327541 55416,6950.2,96.107,573.727,570.404,0.0
55276.0,STARLINK-5261,PAYLOAD,2024-01-13 13:44:28,14.98328441,0.000233,70.0001,206.6466,265.6116,94.4777,-4.6198e-05,-6.44e-06,0.0,0 STARLINK-5261,1 55276U 23010H   24013.57255230 -.00000644  00000-0 -46198-4 0  9998,2 55276  70.0001 206.6466 0002330 265.6116  94.4777 14.98328441 55518,6950.198,96.107,573.682,570.443,0.0
55276.0,STARLINK-5261,PAYLOAD,2024-01-13 20:09:00,14.98327086,0.0002364,70.0002,205.9734,267.8818,92.207,-5.7655e-05,-7.81e-06,0.0,0 STARLINK-5261,1 55276U 23010H   24013.83959381 -.00000781  00000-0 -57655-4 0  9997,2 55276  70.0002 205.9734 0002364 267.8818  92.2070 14.98327086 55256,6950.202,96.107,573.71,570.424,0.0
55276.0,STARLINK-5261,PAYLOAD,2024-01-14 13:46:29,14.98329871,0.0002486,70.0001,204.122,268.4713,91.6162,2.3919e-05,1.92e-06,0.0,0 STARLINK-5261,1 55276U 23010H   24014.57395007  .00000192  00000-0  23919-4 0  9998,2 55276  70.0001 204.1220 0002486 268.4713  91.6162 14.98329871 55666,6950.193,96.107,573.786,570.33,0.0
55276.0,STARLINK-5261,PAYLOAD,2024-01-14 21:47:09,14.98331344,0.0002467,70.0001,203.2805,268.7678,91.3199,3.9968e-05,3.84e-06,0.0,0 STARLINK-5261,1 55276U 23010H   24014.90774858  .00000384  00000-0  39968-4 0  9994,2 55276  70.0001 203.2805 0002467 268.7678  91.3199 14.98331344 55718,6950.189,96.107,573.768,570.339,0.0
55276.0,STARLINK-5261,PAYLOAD,2024-01-15 13:48:30,14.9833108,0.0002515,70.0,201.5974,269.6532,90.4339,5.3775e-05,5.49e-06,0.0,0 STARLINK-5261,1 55276U 23010H   24015.57534769  .00000549  00000-0  53775-4 0  9998,2 55276  70.0000 201.5974 0002515 269.6532  90.4339 14.98331080 55812,6950.19,96.107,573.803,570.307,0.0
55276.0,STARLINK-5261,PAYLOAD,2024-01-15 20:13:02,14.98332047,0.0002499,70.0002,200.9243,269.7132,90.3741,6.1188e-05,6.37e-06,0.0,0 STARLINK-5261,1 55276U 23010H   24015.84238649  .00000637  00000-0  61188-4 0  9991,2 55276  70.0002 200.9243 0002499 269.7132  90.3741 14.98332047 55858,6950.187,96.107,573.788,570.315,0.0
55276.0,STARLINK-5261,PAYLOAD,2024-01-15 21:49:10,14.9833182,0.0002513,70.0001,200.7558,270.3489,89.7382,5.6881e-05,5.86e-06,0.0,0 STARLINK-5261,1 55276U 23010H   24015.90914667  .00000586  00000-0  56881-4 0  9996,2 55276  70.0001 200.7558 0002513 270.3489  89.7382 14.98331820 55563,6950.187,96.107,573.799,570.306,0.0
55276.0,STARLINK-5261,PAYLOAD,2024-01-16 13:50:31,14.98328848,0.0002391,70.0004,199.0731,267.991,92.0975,-4.5784e-05,-6.39e-06,0.0,0 STARLINK-5261,1 55276U 23010H   24016.57675113 -.00000639  00000-0 -45784-4 0  9991,2 55276  70.0004 199.0731 0002391 267.9910  92.0975 14.98328848 55969,6950.196,96.107,573.723,570.4,0.0
